GLOBALSTAR M068 [-]     
1 32266U 07048D   23360.70091397 -.00000098  00000+0  33720-4 0  9994
2 32266  51.9868 143.6719 0001550  75.7994  34.3964 12.62775302749522
GLOBALSTAR M079 [+]     
1 37188U 10054A   23360.25953853 -.00000089  00000+0  82046-4 0  9992
2 37188  52.0062 340.3687 0000213 103.0566 359.0251 12.62270864608391
GLOBALSTAR M074 [+]     
1 37189U 10054B   23360.37504054 -.00000093  00000+0  59791-4 0  9997
2 37189  52.0038 339.4226 0000381  50.4990  96.7409 12.62263488609019
GLOBALSTAR M076 [+]     
1 37190U 10054C   23360.40572681 -.00000091  00000+0  71108-4 0  9998
2 37190  52.0053 339.4538 0000303 302.9844 222.2091 12.62257002608737
GLOBALSTAR M077 [+]     
1 37191U 10054D   23360.23040663 -.00000078  00000+0  14639-3 0  9990
2 37191  52.0086 296.6890 0000678  45.0108 102.8744 12.62267722609089
GLOBALSTAR M075 [+]     
1 37192U 10054E   23360.40617355 -.00000081  00000+0  12753-3 0  9997
2 37192  51.9969  22.0100 0000399 124.9481 341.7117 12.62268491607961
GLOBALSTAR M073 [+]     
1 37193U 10054F   23360.26010220 -.00000079  00000+0  13829-3 0  9992
2 37193  52.0076 295.8591 0000618  50.2871 114.3279 12.62270677609778
GLOBALSTAR M083 [+]     
1 37739U 11033A   23360.88821382 -.00000067  00000+0  20281-3 0  9990
2 37739  51.9851 243.4150 0001132  78.2878   2.2719 12.62264311578870
GLOBALSTAR M088 [+]     
1 37740U 11033B   23360.62718699 -.00000122  00000+0 -99649-4 0  9998
2 37740  51.9716 150.1517 0001242 110.2800 343.8984 12.62269036574386
GLOBALSTAR M091 [+]     
1 37741U 11033C   23360.47848677 -.00000119  00000+0 -84928-4 0  9992
2 37741  51.9997 113.1981 0001077 113.2922 323.9705 12.62269863575150
GLOBALSTAR M085 [+]     
1 37742U 11033D   23360.38676774 -.00000092  00000+0  64127-4 0  9998
2 37742  51.9881  64.9931 0000780 128.0685 312.2228 12.62266042575653
GLOBALSTAR M081 [+]     
1 37743U 11033E   23360.49710296 -.00000090  00000+0  75827-4 0  9996
2 37743  51.9971  67.1114 0000804 143.0513 319.0547 12.62267748575817
GLOBALSTAR M089 [+]     
1 37744U 11033F   23360.37828892 -.00000071  00000+0  18343-3 0  9994
2 37744  51.9954  21.8024 0000129 163.0996 299.2829 12.62270525576644
GLOBALSTAR M084 [+]     
1 38040U 11080A   23360.86144146 -.00000063  00000+0  22893-3 0  9999
2 38040  52.0000 247.3359 0000766  53.1099  24.5601 12.62269678554688
GLOBALSTAR M080 [+]     
1 38041U 11080B   23360.91491368 -.00000060  00000+0  24408-3 0  9998
2 38041  52.0052 248.5914 0000614  47.7546  32.7869 12.62267752554817
GLOBALSTAR M082 [+]     
1 38042U 11080C   23360.76947286 -.00000060  00000+0  24304-3 0  9992
2 38042  52.0047 204.4213 0001725  87.0324 353.3910 12.62264985555501
GLOBALSTAR M092 [+]     
1 38043U 11080D   23360.28678062 -.00000088  00000+0  85949-4 0  9996
2 38043  52.0101 296.2393 0000717  24.2943 140.4277 12.62247927553899
GLOBALSTAR M090 [+]     
1 38044U 11080E   23360.88009420 -.00000076  00000+0  15319-3 0  9999
2 38044  51.9860 198.5859 0001382  85.7042  18.3347 12.62265196555635
GLOBALSTAR M086 [+]     
1 38045U 11080F   23360.74299689 -.00000076  00000+0  15236-3 0  9991
2 38045  51.9873 199.5137 0000995 133.8233 306.0205 12.62266059555567
GLOBALSTAR M097 [+]     
1 39072U 13005A   23360.59329926 -.00000127  00000+0 -13175-3 0  9990
2 39072  52.0042 113.9661 0001117 119.0280 241.0699 12.62273557502798
GLOBALSTAR M093 [+]     
1 39073U 13005B   23360.48752213 -.00000121  00000+0 -94960-4 0  9994
2 39073  51.9811 108.4522 0001206 128.5608 231.5367 12.62278430502739
GLOBALSTAR M094 [+]     
1 39074U 13005C   23360.25021939 -.00000085  00000+0  10255-3 0  9996
2 39074  51.9981  23.0212 0000421 137.8495 222.2404 12.62270602504319
GLOBALSTAR M096 [+]     
1 39075U 13005D   23360.58031613 -.00000091  00000+0  72844-4 0  9993
2 39075  52.0085  70.1106 0000852 132.0599 228.0340 12.62267185503620
GLOBALSTAR M078 [+]     
1 39076U 13005E   23360.71215952 -.00000112  00000+0 -46403-4 0  9996
2 39076  51.9849 154.9494 0001819  83.7552 276.3522 12.62264920501915
GLOBALSTAR M095 [+]     
1 39077U 13005F   23360.81762198 -.00000114  00000+0 -56932-4 0  9997
2 39077  51.9777 152.0916 0001720 103.5487 256.5571 12.62272262501780
GLOBALSTAR M087 [+]     
1 52888U 22064A   23360.45207617 -.00000108  00000+0  38138-4 0  9997
2 52888  51.9763  94.1804 0008735 283.6740  76.3187 13.37560923 74274
